SL-14 R/B               
1 16792U 86046B   26018.76180447  .00000445  00000+0  48492-4 0  9996
2 16792  82.4836 127.3528 0023947  36.1826 324.1005 14.85530870118991
SL-14 R/B               
1 16882U 86055B   26018.97243169  .00000504  00000+0  55228-4 0  9991
2 16882  82.5210 173.3857 0019973 133.7490 348.5199 14.85575274111982
AJISAI (EGS)            
1 16908U 86061A   26018.95429398 -.00000070  00000+0  19424-3 0  9991
2 16908  50.0072 246.2861 0011286 159.4208  40.3986 12.44515082461807
COSMOS 1812             
1 17295U 87003A   26018.65379853  .00143530  00000+0  60489-3 0  9990
2 17295  82.4824 251.7875 0002335  44.2492 315.8964 15.85058832136480
SL-14 R/B               
1 17567U 87024B   26018.81336833  .00000487  00000+0  52719-4 0  9995
2 17567  82.5302 139.6296 0019613  67.8989 292.4308 14.86071324 80722
COSMOS 1833             
1 17589U 87027A   26018.88283543  .00000296  00000+0  18405-3 0  9999
2 17589  70.9193  70.7018 0024291 280.7011  79.1375 14.13046647  3282
SL-16 R/B               
1 17590U 87027B   26019.00072069 -.00000226  00000+0 -88525-4 0  9991
2 17590  71.0033  21.1999 0006306 219.5409 140.5255 14.17159656  8302
SL-14 R/B               
1 17912U 87038B   26018.98473202  .00000505  00000+0  55916-4 0  9997
2 17912  82.5029 343.6174 0018574 333.4759  26.5504 14.85304675 71851
COSMOS 1844             
1 17973U 87041A   26018.75838074 -.00000310  00000+0 -13580-3 0  9991
2 17973  70.8995 139.4947 0028257  98.0193 262.4136 14.14536180996526
SL-14 R/B               
1 18153U 87055B   26018.56605762  .00000400  00000+0  43338-4 0  9995
2 18153  82.4975  36.2741 0020760 175.0409 185.1017 14.85561325 62493
COSMOS 1867             
1 18187U 87060A   26018.90927980 -.00000026  00000+0  27914-4 0  9992
2 18187  65.0108  86.1139 0013903 274.7294  85.2202 14.31493176 12816
SL-14 R/B               
1 18749U 88001B   26018.89484558  .00000391  00000+0  42392-4 0  9990
2 18749  82.5111 242.2009 0019185  46.3732 313.9071 14.85464249 34634
