CCSDS_OMM_VERS = 2.0
CREATION_DATE  = 
ORIGINATOR     = 

OBJECT_NAME    = SL-14 R/B
OBJECT_ID      = 1986-046B
CENTER_NAME    = EARTH
REF_FRAME      = TEME
TIME_SYSTEM    = UTC
MEAN_ELEMENT_THEORY = SGP/SGP4

EPOCH          = 2026-01-18T18:16:59.906208
MEAN_MOTION    = 14.85530870
ECCENTRICITY   = .00239473
INCLINATION    = 82.4836
RA_OF_ASC_NODE = 127.3528
ARG_OF_PERICENTER = 36.1826
MEAN_ANOMALY   = 324.1005

EPHEMERIS_TYPE = 0
CLASSIFICATION_TYPE = U
NORAD_CAT_ID   = 16792
ELEMENT_SET_NO = 999
REV_AT_EPOCH   = 11899
BSTAR          = .4849194E-4
MEAN_MOTION_DOT = .445E-5
MEAN_MOTION_DDOT = 0

CCSDS_OMM_VERS = 2.0
CREATION_DATE  = 
ORIGINATOR     = 

OBJECT_NAME    = SL-14 R/B
OBJECT_ID      = 1986-055B
CENTER_NAME    = EARTH
REF_FRAME      = TEME
TIME_SYSTEM    = UTC
MEAN_ELEMENT_THEORY = SGP/SGP4

EPOCH          = 2026-01-18T23:20:18.098016
MEAN_MOTION    = 14.85575274
ECCENTRICITY   = .00199734
INCLINATION    = 82.5210
RA_OF_ASC_NODE = 173.3857
ARG_OF_PERICENTER = 133.7490
MEAN_ANOMALY   = 348.5199

EPHEMERIS_TYPE = 0
CLASSIFICATION_TYPE = U
NORAD_CAT_ID   = 16882
ELEMENT_SET_NO = 999
REV_AT_EPOCH   = 11198
BSTAR          = .55228118E-4
MEAN_MOTION_DOT = .504E-5
MEAN_MOTION_DDOT = 0

CCSDS_OMM_VERS = 2.0
CREATION_DATE  = 
ORIGINATOR     = 

OBJECT_NAME    = AJISAI (EGS)
OBJECT_ID      = 1986-061A
CENTER_NAME    = EARTH
REF_FRAME      = TEME
TIME_SYSTEM    = UTC
MEAN_ELEMENT_THEORY = SGP/SGP4

EPOCH          = 2026-01-18T22:54:10.999872
MEAN_MOTION    = 12.44515082
ECCENTRICITY   = .00112868
INCLINATION    = 50.0072
RA_OF_ASC_NODE = 246.2861
ARG_OF_PERICENTER = 159.4208
MEAN_ANOMALY   = 40.3986

EPHEMERIS_TYPE = 0
CLASSIFICATION_TYPE = U
NORAD_CAT_ID   = 16908
ELEMENT_SET_NO = 999
REV_AT_EPOCH   = 46180
BSTAR          = .19424492E-3
MEAN_MOTION_DOT = -.7E-6
MEAN_MOTION_DDOT = 0

CCSDS_OMM_VERS = 2.0
CREATION_DATE  = 
ORIGINATOR     = 

OBJECT_NAME    = COSMOS 1812
OBJECT_ID      = 1987-003A
CENTER_NAME    = EARTH
REF_FRAME      = TEME
TIME_SYSTEM    = UTC
MEAN_ELEMENT_THEORY = SGP/SGP4

EPOCH          = 2026-01-18T15:41:28.192992
MEAN_MOTION    = 15.85058832
ECCENTRICITY   = .00023351
INCLINATION    = 82.4824
RA_OF_ASC_NODE = 251.7875
ARG_OF_PERICENTER = 44.2492
MEAN_ANOMALY   = 315.8964

EPHEMERIS_TYPE = 0
CLASSIFICATION_TYPE = U
NORAD_CAT_ID   = 17295
ELEMENT_SET_NO = 999
REV_AT_EPOCH   = 13648
BSTAR          = .60489155E-3
MEAN_MOTION_DOT = .14353E-2
MEAN_MOTION_DDOT = 0

CCSDS_OMM_VERS = 2.0
CREATION_DATE  = 
ORIGINATOR     = 

OBJECT_NAME    = SL-14 R/B
OBJECT_ID      = 1987-024B
CENTER_NAME    = EARTH
REF_FRAME      = TEME
TIME_SYSTEM    = UTC
MEAN_ELEMENT_THEORY = SGP/SGP4

EPOCH          = 2026-01-18T19:31:15.023712
MEAN_MOTION    = 14.86071324
ECCENTRICITY   = .00196137
INCLINATION    = 82.5302
RA_OF_ASC_NODE = 139.6296
ARG_OF_PERICENTER = 67.8989
MEAN_ANOMALY   = 292.4308

EPHEMERIS_TYPE = 0
CLASSIFICATION_TYPE = U
NORAD_CAT_ID   = 17567
ELEMENT_SET_NO = 999
REV_AT_EPOCH   = 8072
BSTAR          = .52719355E-4
MEAN_MOTION_DOT = .487E-5
MEAN_MOTION_DDOT = 0

CCSDS_OMM_VERS = 2.0
CREATION_DATE  = 
ORIGINATOR     = 

OBJECT_NAME    = COSMOS 1833
OBJECT_ID      = 1987-027A
CENTER_NAME    = EARTH
REF_FRAME      = TEME
TIME_SYSTEM    = UTC
MEAN_ELEMENT_THEORY = SGP/SGP4

EPOCH          = 2026-01-18T21:11:16.981152
MEAN_MOTION    = 14.13046647
ECCENTRICITY   = .00242916
INCLINATION    = 70.9193
RA_OF_ASC_NODE = 70.7018
ARG_OF_PERICENTER = 280.7011
MEAN_ANOMALY   = 79.1375

EPHEMERIS_TYPE = 0
CLASSIFICATION_TYPE = U
NORAD_CAT_ID   = 17589
ELEMENT_SET_NO = 999
REV_AT_EPOCH   = 328
BSTAR          = .18404608E-3
MEAN_MOTION_DOT = .296E-5
MEAN_MOTION_DDOT = 0

CCSDS_OMM_VERS = 2.0
CREATION_DATE  = 
ORIGINATOR     = 

OBJECT_NAME    = SL-16 R/B
OBJECT_ID      = 1987-027B
CENTER_NAME    = EARTH
REF_FRAME      = TEME
TIME_SYSTEM    = UTC
MEAN_ELEMENT_THEORY = SGP/SGP4

EPOCH          = 2026-01-19T00:01:02.267616
MEAN_MOTION    = 14.17159656
ECCENTRICITY   = .00063069
INCLINATION    = 71.0033
RA_OF_ASC_NODE = 21.1999
ARG_OF_PERICENTER = 219.5409
MEAN_ANOMALY   = 140.5255

EPHEMERIS_TYPE = 0
CLASSIFICATION_TYPE = U
NORAD_CAT_ID   = 17590
ELEMENT_SET_NO = 999
REV_AT_EPOCH   = 830
BSTAR          = -.88525031E-4
MEAN_MOTION_DOT = -.226E-5
MEAN_MOTION_DDOT = 0

CCSDS_OMM_VERS = 2.0
CREATION_DATE  = 
ORIGINATOR     = 

OBJECT_NAME    = SL-14 R/B
OBJECT_ID      = 1987-038B
CENTER_NAME    = EARTH
REF_FRAME      = TEME
TIME_SYSTEM    = UTC
MEAN_ELEMENT_THEORY = SGP/SGP4

EPOCH          = 2026-01-18T23:38:00.846528
MEAN_MOTION    = 14.85304675
ECCENTRICITY   = .0018574
INCLINATION    = 82.5029
RA_OF_ASC_NODE = 343.6174
ARG_OF_PERICENTER = 333.4759
MEAN_ANOMALY   = 26.5504

EPHEMERIS_TYPE = 0
CLASSIFICATION_TYPE = U
NORAD_CAT_ID   = 17912
ELEMENT_SET_NO = 999
REV_AT_EPOCH   = 7185
BSTAR          = .55916118E-4
MEAN_MOTION_DOT = .505E-5
MEAN_MOTION_DDOT = 0

CCSDS_OMM_VERS = 2.0
CREATION_DATE  = 
ORIGINATOR     = 

OBJECT_NAME    = COSMOS 1844
OBJECT_ID      = 1987-041A
CENTER_NAME    = EARTH
REF_FRAME      = TEME
TIME_SYSTEM    = UTC
MEAN_ELEMENT_THEORY = SGP/SGP4

EPOCH          = 2026-01-18T18:12:04.095936
MEAN_MOTION    = 14.14536180
ECCENTRICITY   = .00282571
INCLINATION    = 70.8995
RA_OF_ASC_NODE = 139.4947
ARG_OF_PERICENTER = 98.0193
MEAN_ANOMALY   = 262.4136

EPHEMERIS_TYPE = 0
CLASSIFICATION_TYPE = U
NORAD_CAT_ID   = 17973
ELEMENT_SET_NO = 999
REV_AT_EPOCH   = 99652
BSTAR          = -.13580113E-3
MEAN_MOTION_DOT = -.31E-5
MEAN_MOTION_DDOT = 0

CCSDS_OMM_VERS = 2.0
CREATION_DATE  = 
ORIGINATOR     = 

OBJECT_NAME    = SL-14 R/B
OBJECT_ID      = 1987-055B
CENTER_NAME    = EARTH
REF_FRAME      = TEME
TIME_SYSTEM    = UTC
MEAN_ELEMENT_THEORY = SGP/SGP4

EPOCH          = 2026-01-18T13:35:07.378368
MEAN_MOTION    = 14.85561325
ECCENTRICITY   = .00207604
INCLINATION    = 82.4975
RA_OF_ASC_NODE = 36.2741
ARG_OF_PERICENTER = 175.0409
MEAN_ANOMALY   = 185.1017

EPHEMERIS_TYPE = 0
CLASSIFICATION_TYPE = U
NORAD_CAT_ID   = 18153
ELEMENT_SET_NO = 999
REV_AT_EPOCH   = 6249
BSTAR          = .43337569E-4
MEAN_MOTION_DOT = .4E-5
MEAN_MOTION_DDOT = 0

CCSDS_OMM_VERS = 2.0
CREATION_DATE  = 
ORIGINATOR     = 

OBJECT_NAME    = COSMOS 1867
OBJECT_ID      = 1987-060A
CENTER_NAME    = EARTH
REF_FRAME      = TEME
TIME_SYSTEM    = UTC
MEAN_ELEMENT_THEORY = SGP/SGP4

EPOCH          = 2026-01-18T21:49:21.774720
MEAN_MOTION    = 14.31493176
ECCENTRICITY   = .00139039
INCLINATION    = 65.0108
RA_OF_ASC_NODE = 86.1139
ARG_OF_PERICENTER = 274.7294
MEAN_ANOMALY   = 85.2202

EPHEMERIS_TYPE = 0
CLASSIFICATION_TYPE = U
NORAD_CAT_ID   = 18187
ELEMENT_SET_NO = 999
REV_AT_EPOCH   = 1281
BSTAR          = .2791374E-4
MEAN_MOTION_DOT = -.26E-6
MEAN_MOTION_DDOT = 0

CCSDS_OMM_VERS = 2.0
CREATION_DATE  = 
ORIGINATOR     = 

OBJECT_NAME    = SL-14 R/B
OBJECT_ID      = 1988-001B
CENTER_NAME    = EARTH
REF_FRAME      = TEME
TIME_SYSTEM    = UTC
MEAN_ELEMENT_THEORY = SGP/SGP4

EPOCH          = 2026-01-18T21:28:34.658112
MEAN_MOTION    = 14.85464249
ECCENTRICITY   = .00191851
INCLINATION    = 82.5111
RA_OF_ASC_NODE = 242.2009
ARG_OF_PERICENTER = 46.3732
MEAN_ANOMALY   = 313.9071

EPHEMERIS_TYPE = 0
CLASSIFICATION_TYPE = U
NORAD_CAT_ID   = 18749
ELEMENT_SET_NO = 999
REV_AT_EPOCH   = 3463
BSTAR          = .42392142E-4
MEAN_MOTION_DOT = .391E-5
MEAN_MOTION_DDOT = 0

